start=new Date('2021-12-23T00:00:00.000Z').valueOf();
sats=[{"APOAPSIS":"548.577","TLE_LINE2":"2 46686  53.0556 320.6899 0001902  52.8309 307.2854 15.06384992 65593","MEAN_MOTION_DOT":"-0.00000967","REV_AT_EPOCH":"6559","OBJECT_TYPE":"PAYLOAD","ECCENTRICITY":"0.00019020","SEMIMAJOR_AXIS":"6925.395","OBJECT_NAME":"STARLINK-1783","INCLINATION":"53.0556","CENTER_NAME":"EARTH","LAUNCH_DATE":"2020-10-18","TIME_SYSTEM":"UTC","SITE":"AFETR","EPOCH":"2021-12-22T18:01:59.552544","DECAY_DATE":null,"MEAN_ELEMENT_THEORY":"SGP4","ELEMENT_SET_NO":"999","OBJECT_ID":"2020-073S","PERIAPSIS":"545.942","EPHEMERIS_TYPE":"0","ARG_OF_PERICENTER":"52.8309","RCS_SIZE":"LARGE","REF_FRAME":"TEME","MEAN_MOTION_DDOT":"0.0000000000000","TLE_LINE1":"1 46686U 20073S   21356.75138371 -.00000967  00000-0 -46015-4 0  9998","GP_ID":"192226448","BSTAR":"-0.00004601500000","RA_OF_ASC_NODE":"320.6899","FILE":"3247758","MEAN_MOTION":"15.06384992","NORAD_CAT_ID":"46686","PERIOD":"95.593","MEAN_ANOMALY":"307.2854","CLASSIFICATION_TYPE":"U","COUNTRY_CODE":"US"},{"REF_FRAME":"TEME","BSTAR":"-0.00020633000000","GP_ID":"192218336","TLE_LINE1":"1 46687U 20073T   21356.53898746 -.00003352  00000-0 -20633-3 0  9992","MEAN_MOTION_DDOT":"0.0000000000000","OBJECT_ID":"2020-073T","ELEMENT_SET_NO":"999","RCS_SIZE":"LARGE","EPHEMERIS_TYPE":"0","ARG_OF_PERICENTER":"55.9369","PERIAPSIS":"545.810","MEAN_ANOMALY":"304.1819","COUNTRY_CODE":"US","CLASSIFICATION_TYPE":"U","FILE":"3247523","RA_OF_ASC_NODE":"286.6374","NORAD_CAT_ID":"46687","PERIOD":"95.593","MEAN_MOTION":"15.06383799","SEMIMAJOR_AXIS":"6925.398","OBJECT_NAME":"STARLINK-1784","MEAN_MOTION_DOT":"-0.00003352","TLE_LINE2":"2 46687  53.0559 286.6374 0002098  55.9369 304.1819 15.06383799 65572","APOAPSIS":"548.716","OBJECT_TYPE":"PAYLOAD","ECCENTRICITY":"0.00020980","REV_AT_EPOCH":"6557","DECAY_DATE":null,"EPOCH":"2021-12-22T12:56:08.516544","SITE":"AFETR","MEAN_ELEMENT_THEORY":"SGP4","INCLINATION":"53.0559","TIME_SYSTEM":"UTC","LAUNCH_DATE":"2020-10-18","CENTER_NAME":"EARTH"},{"OBJECT_ID":"2020-073U","ELEMENT_SET_NO":"999","PERIAPSIS":"336.297","ARG_OF_PERICENTER":"280.4781","EPHEMERIS_TYPE":"0","RCS_SIZE":"LARGE","REF_FRAME":"TEME","MEAN_MOTION_DDOT":"0.0000000000000","TLE_LINE1":"1 46688U 20073U   21356.67915576  .00057506  00000-0  36453-3 0  9994","GP_ID":"192223841","BSTAR":"0.00036453000000","RA_OF_ASC_NODE":"284.4450","FILE":"3247652","MEAN_MOTION":"15.75949158","NORAD_CAT_ID":"46688","PERIOD":"91.374","MEAN_ANOMALY":"79.5293","CLASSIFICATION_TYPE":"U","COUNTRY_CODE":"US","APOAPSIS":"347.570","TLE_LINE2":"2 46688  53.0558 284.4450 0008387 280.4781  79.5293 15.75949158 66105","MEAN_MOTION_DOT":"0.00057506","REV_AT_EPOCH":"6610","ECCENTRICITY":"0.00083870","OBJECT_TYPE":"PAYLOAD","SEMIMAJOR_AXIS":"6720.069","OBJECT_NAME":"STARLINK-1786","INCLINATION":"53.0558","CENTER_NAME":"EARTH","TIME_SYSTEM":"UTC","LAUNCH_DATE":"2020-10-18","SITE":"AFETR","EPOCH":"2021-12-22T16:17:59.057664","DECAY_DATE":null,"MEAN_ELEMENT_THEORY":"SGP4"},{"INCLINATION":"53.0559","CENTER_NAME":"EARTH","LAUNCH_DATE":"2020-10-18","TIME_SYSTEM":"UTC","SITE":"AFETR","DECAY_DATE":null,"EPOCH":"2021-12-22T15:06:49.915296","MEAN_ELEMENT_THEORY":"SGP4","TLE_LINE2":"2 46689  53.0559 321.2473 0001629  54.7457 305.3685 15.06382323 65570","APOAPSIS":"548.396","MEAN_MOTION_DOT":"-0.00002432","REV_AT_EPOCH":"6557","ECCENTRICITY":"0.00016290","OBJECT_TYPE":"PAYLOAD","SEMIMAJOR_AXIS":"6925.403","OBJECT_NAME":"STARLINK-1788","RA_OF_ASC_NODE":"321.2473","FILE":"3247750","MEAN_MOTION":"15.06382323","NORAD_CAT_ID":"46689","PERIOD":"95.593","MEAN_ANOMALY":"305.3685","CLASSIFICATION_TYPE":"U","COUNTRY_CODE":"US","OBJECT_ID":"2020-073V","ELEMENT_SET_NO":"999","EPHEMERIS_TYPE":"0","ARG_OF_PERICENTER":"54.7457","PERIAPSIS":"546.140","RCS_SIZE":"LARGE","REF_FRAME":"TEME","TLE_LINE1":"1 46689U 20073V   21356.62974439 -.00002432  00000-0 -14446-3 0  9991","MEAN_MOTION_DDOT":"0.0000000000000","BSTAR":"-0.00014446000000","GP_ID":"192226309"},{"INCLINATION":"53.0559","LAUNCH_DATE":"2020-10-18","TIME_SYSTEM":"UTC","CENTER_NAME":"EARTH","EPOCH":"2021-12-22T19:54:06.543360","DECAY_DATE":null,"SITE":"AFETR","MEAN_ELEMENT_THEORY":"SGP4","MEAN_MOTION_DOT":"-0.00001574","APOAPSIS":"548.352","TLE_LINE2":"2 46690  53.0559 295.3314 0001588  54.5829 305.5308 15.06387307 65955","ECCENTRICITY":"0.00015880","OBJECT_TYPE":"PAYLOAD","REV_AT_EPOCH":"6595","SEMIMAJOR_AXIS":"6925.387","OBJECT_NAME":"STARLINK-1789","FILE":"3247750","RA_OF_ASC_NODE":"295.3314","PERIOD":"95.593","NORAD_CAT_ID":"46690","MEAN_MOTION":"15.06387307","MEAN_ANOMALY":"305.5308","COUNTRY_CODE":"US","CLASSIFICATION_TYPE":"U","OBJECT_ID":"2020-073W","ELEMENT_SET_NO":"999","RCS_SIZE":"LARGE","PERIAPSIS":"546.153","ARG_OF_PERICENTER":"54.5829","EPHEMERIS_TYPE":"0","REF_FRAME":"TEME","GP_ID":"192226217","BSTAR":"-0.00008680000000","MEAN_MOTION_DDOT":"0.0000000000000","TLE_LINE1":"1 46690U 20073W   21356.82924240 -.00001574  00000-0 -86800-4 0  9990"},{"BSTAR":"-0.00014588000000","GP_ID":"192226306","TLE_LINE1":"1 46691U 20073X   21356.82832273 -.00002453  00000-0 -14588-3 0  9995","MEAN_MOTION_DDOT":"0.0000000000000","REF_FRAME":"TEME","RCS_SIZE":"LARGE","EPHEMERIS_TYPE":"0","ARG_OF_PERICENTER":"56.0414","PERIAPSIS":"545.938","ELEMENT_SET_NO":"999","OBJECT_ID":"2020-073X","COUNTRY_CODE":"US","CLASSIFICATION_TYPE":"U","MEAN_ANOMALY":"304.0755","PERIOD":"95.593","NORAD_CAT_ID":"46691","MEAN_MOTION":"15.06388590","FILE":"3247750","RA_OF_ASC_NODE":"305.3550","OBJECT_NAME":"STARLINK-1790","SEMIMAJOR_AXIS":"6925.384","OBJECT_TYPE":"PAYLOAD","ECCENTRICITY":"0.00018920","REV_AT_EPOCH":"6581","MEAN_MOTION_DOT":"-0.00002453","TLE_LINE2":"2 46691  53.0559 305.3550 0001892  56.0414 304.0755 15.06388590 65815","APOAPSIS":"548.559","MEAN_ELEMENT_THEORY":"SGP4","DECAY_DATE":null,"EPOCH":"2021-12-22T19:52:47.083872","SITE":"AFETR","TIME_SYSTEM":"UTC","LAUNCH_DATE":"2020-10-18","CENTER_NAME":"EARTH","INCLINATION":"53.0559"},{"SEMIMAJOR_AXIS":"6925.400","OBJECT_NAME":"STARLINK-1791","MEAN_MOTION_DOT":"-0.00002561","APOAPSIS":"548.467","TLE_LINE2":"2 46692  53.0547 322.7899 0001735  70.3151 289.8025 15.06383070 65048","ECCENTRICITY":"0.00017350","OBJECT_TYPE":"PAYLOAD","REV_AT_EPOCH":"6504","EPOCH":"2021-12-22T06:47:54.461472","DECAY_DATE":null,"SITE":"AFETR","MEAN_ELEMENT_THEORY":"SGP4","INCLINATION":"53.0547","TIME_SYSTEM":"UTC","LAUNCH_DATE":"2020-10-18","CENTER_NAME":"EARTH","REF_FRAME":"TEME","GP_ID":"192219089","BSTAR":"-0.00015314000000","MEAN_MOTION_DDOT":"0.0000000000000","TLE_LINE1":"1 46692U 20073Y   21356.28326923 -.00002561  00000-0 -15314-3 0  9994","OBJECT_ID":"2020-073Y","ELEMENT_SET_NO":"999","RCS_SIZE":"LARGE","PERIAPSIS":"546.064","ARG_OF_PERICENTER":"70.3151","EPHEMERIS_TYPE":"0","MEAN_ANOMALY":"289.8025","COUNTRY_CODE":"US","CLASSIFICATION_TYPE":"U","FILE":"3247523","RA_OF_ASC_NODE":"322.7899","PERIOD":"95.593","NORAD_CAT_ID":"46692","MEAN_MOTION":"15.06383070"},{"TLE_LINE2":"2 46693  53.0556 305.6262 0001983  54.1179 305.9994 15.06384258 65783","APOAPSIS":"548.635","MEAN_MOTION_DOT":"-0.00000806","REV_AT_EPOCH":"6578","ECCENTRICITY":"0.00019830","OBJECT_TYPE":"PAYLOAD","SEMIMAJOR_AXIS":"6925.397","OBJECT_NAME":"STARLINK-1792","INCLINATION":"53.0556","CENTER_NAME":"EARTH","LAUNCH_DATE":"2020-10-18","TIME_SYSTEM":"UTC","SITE":"AFETR","DECAY_DATE":null,"EPOCH":"2021-12-22T18:22:33.684960","MEAN_ELEMENT_THEORY":"SGP4","ELEMENT_SET_NO":"999","OBJECT_ID":"2020-073Z","ARG_OF_PERICENTER":"54.1179","EPHEMERIS_TYPE":"0","PERIAPSIS":"545.888","RCS_SIZE":"LARGE","REF_FRAME":"TEME","TLE_LINE1":"1 46693U 20073Z   21356.76566765 -.00000806  00000-0 -35197-4 0  9990","MEAN_MOTION_DDOT":"0.0000000000000","BSTAR":"-0.00003519700000","GP_ID":"192226382","RA_OF_ASC_NODE":"305.6262","FILE":"3247758","MEAN_MOTION":"15.06384258","NORAD_CAT_ID":"46693","PERIOD":"95.593","MEAN_ANOMALY":"305.9994","CLASSIFICATION_TYPE":"U","COUNTRY_CODE":"US"},{"OBJECT_NAME":"STARLINK-1793","SEMIMAJOR_AXIS":"6925.390","REV_AT_EPOCH":"6608","OBJECT_TYPE":"PAYLOAD","ECCENTRICITY":"0.00044400","TLE_LINE2":"2 46694  53.0551 285.8313 0004440  37.3968 322.7329 15.06386539 66082","APOAPSIS":"550.330","MEAN_MOTION_DOT":"-0.00000776","MEAN_ELEMENT_THEORY":"SGP4","SITE":"AFETR","DECAY_DATE":null,"EPOCH":"2021-12-22T17:21:31.563072","CENTER_NAME":"EARTH","TIME_SYSTEM":"UTC","LAUNCH_DATE":"2020-10-18","INCLINATION":"53.0551","TLE_LINE1":"1 46694U 20073AA  21356.72328198 -.00000776  00000-0 -33135-4 0  9999","MEAN_MOTION_DDOT":"0.0000000000000","BSTAR":"-0.00003313500000","GP_ID":"192226206","REF_FRAME":"TEME","ARG_OF_PERICENTER":"37.3968","EPHEMERIS_TYPE":"0","PERIAPSIS":"544.180","RCS_SIZE":"LARGE","OBJECT_ID":"2020-073AA","ELEMENT_SET_NO":"999","CLASSIFICATION_TYPE":"U","COUNTRY_CODE":"US","MEAN_ANOMALY":"322.7329","MEAN_MOTION":"15.06386539","NORAD_CAT_ID":"46694","PERIOD":"95.593","RA_OF_ASC_NODE":"285.8313","FILE":"3247750"},{"OBJECT_NAME":"STARLINK-1795","SEMIMAJOR_AXIS":"6925.389","REV_AT_EPOCH":"6557","ECCENTRICITY":"0.00019980","OBJECT_TYPE":"PAYLOAD","TLE_LINE2":"2 46696  53.0554 286.6218 0001998  65.4367 294.6830 15.06386713 65571","APOAPSIS":"548.638","MEAN_MOTION_DOT":"-0.00001521","MEAN_ELEMENT_THEORY":"SGP4","SITE":"AFETR","DECAY_DATE":null,"EPOCH":"2021-12-22T13:01:26.495328","CENTER_NAME":"EARTH","LAUNCH_DATE":"2020-10-18","TIME_SYSTEM":"UTC","INCLINATION":"53.0554","TLE_LINE1":"1 46696U 20073AC  21356.54266777 -.00001521  00000-0 -83274-4 0  9993","MEAN_MOTION_DDOT":"0.0000000000000","BSTAR":"-0.00008327400000","GP_ID":"192218337","REF_FRAME":"TEME","ARG_OF_PERICENTER":"65.4367","EPHEMERIS_TYPE":"0","PERIAPSIS":"545.871","RCS_SIZE":"LARGE","OBJECT_ID":"2020-073AC","ELEMENT_SET_NO":"999","CLASSIFICATION_TYPE":"U","COUNTRY_CODE":"US","MEAN_ANOMALY":"294.6830","MEAN_MOTION":"15.06386713","NORAD_CAT_ID":"46696","PERIOD":"95.593","RA_OF_ASC_NODE":"286.6218","FILE":"3247523"}];
